STARLINK-36337          
1 68716U 26081T   26113.70650550 -.00403719  00000+0 -17053-2 0  9999
2 68716  53.1594 195.1998 0004010  22.7121 337.4081 15.85620919  1495
