{
  "norad_id": 68716,
  "name": "STARLINK-36337",
  "history": [
    {
      "epoch": "2026-04-23T16:57:22.075200Z",
      "apogee_km": 317.2607955839003,
      "perigee_km": 311.89310514143017,
      "latitude_deg": 4.3240640633026424e-05,
      "longitude_deg": 89.10796694598687,
      "height_km": 313.0203855060164,
      "semi_major_axis_km": 6692.713950362665,
      "eccentricity": 0.00040101,
      "inclination_deg": 53.1594,
      "raan_deg": 195.1998,
      "arg_perigee_deg": 22.7121,
      "mean_anomaly_deg": 337.4081,
      "mean_motion_rev_day": 15.85620919
    }
  ]
}